[
  {
    "OBJECT_NAME": "STARLINK-34821",
    "OBJECT_ID": "25176B",
    "EPOCH": "2025-11-11T06:53:01.295520",
    "MEAN_MOTION": 15.30187002,
    "ECCENTRICITY": 0.0001407,
    "INCLINATION": 53.1622,
    "RA_OF_ASC_NODE": 342.6163,
    "ARG_OF_PERICENTER": 74.1582,
    "MEAN_ANOMALY": 285.9574,
    "EPHEMERIS_TYPE": 0,
    "CLASSIFICATION_TYPE": "U",
    "NORAD_CAT_ID": 65199,
    "ELEMENT_SET_NO": 999,
    "REV_AT_EPOCH": 1493,
    "BSTAR": 0.0014249999999999998,
    "MEAN_MOTION_DOT": 0.00042067,
    "MEAN_MOTION_DDOT": 0.0,
    "TLE_LINE1": "1 65199U 25176B   25315.28682055  .00042067  00000+0  14250-2 0  9995",
    "TLE_LINE2": "2 65199  53.1622 342.6163 0001407  74.1582 285.9574 15.30187002 14939",
    "COMMENT": "Grouped by shell and plane from TLE"
  },
  {
    "OBJECT_NAME": "STARLINK-34865",
    "OBJECT_ID": "25176C",
    "EPOCH": "2025-11-11T06:21:16.217856",
    "MEAN_MOTION": 15.3020327,
    "ECCENTRICITY": 4.76e-05,
    "INCLINATION": 53.162,
    "RA_OF_ASC_NODE": 343.1891,
    "ARG_OF_PERICENTER": 112.5808,
    "MEAN_ANOMALY": 247.5243,
    "EPHEMERIS_TYPE": 0,
    "CLASSIFICATION_TYPE": "U",
    "NORAD_CAT_ID": 65200,
    "ELEMENT_SET_NO": 999,
    "REV_AT_EPOCH": 1498,
    "BSTAR": 0.0013339,
    "MEAN_MOTION_DOT": 0.00039359,
    "MEAN_MOTION_DDOT": 0.0,
    "TLE_LINE1": "1 65200U 25176C   25315.26477104  .00039359  00000+0  13339-2 0  9990",
    "TLE_LINE2": "2 65200  53.1620 343.1891 0000476 112.5808 247.5243 15.30203270 14985",
    "COMMENT": "Grouped by shell and plane from TLE"
  },
  {
    "OBJECT_NAME": "STARLINK-34843",
    "OBJECT_ID": "25176D",
    "EPOCH": "2025-11-11T07:23:22.871904",
    "MEAN_MOTION": 15.30202637,
    "ECCENTRICITY": 0.0001473,
    "INCLINATION": 53.1572,
    "RA_OF_ASC_NODE": 342.7463,
    "ARG_OF_PERICENTER": 57.4256,
    "MEAN_ANOMALY": 302.6886,
    "EPHEMERIS_TYPE": 0,
    "CLASSIFICATION_TYPE": "U",
    "NORAD_CAT_ID": 65201,
    "ELEMENT_SET_NO": 999,
    "REV_AT_EPOCH": 1499,
    "BSTAR": 0.0,
    "MEAN_MOTION_DOT": -0.00030539,
    "MEAN_MOTION_DDOT": 0.0,
    "TLE_LINE1": "1 65201U 25176D   25315.30790361 -.00030539  00000+0 -10231-2 0  9990",
    "TLE_LINE2": "2 65201  53.1572 342.7463 0001473  57.4256 302.6886 15.30202637 14997",
    "COMMENT": "Grouped by shell and plane from TLE"
  },
  {
    "OBJECT_NAME": "STARLINK-34905",
    "OBJECT_ID": "25176E",
    "EPOCH": "2025-11-11T07:24:55.717344",
    "MEAN_MOTION": 15.3020633,
    "ECCENTRICITY": 0.0001251,
    "INCLINATION": 53.1574,
    "RA_OF_ASC_NODE": 342.754,
    "ARG_OF_PERICENTER": 94.4839,
    "MEAN_ANOMALY": 265.6305,
    "EPHEMERIS_TYPE": 0,
    "CLASSIFICATION_TYPE": "U",
    "NORAD_CAT_ID": 65202,
    "ELEMENT_SET_NO": 999,
    "REV_AT_EPOCH": 1499,
    "BSTAR": 0.00036321,
    "MEAN_MOTION_DOT": 0.00010415,
    "MEAN_MOTION_DDOT": 0.0,
    "TLE_LINE1": "1 65202U 25176E   25315.30897821  .00010415  00000+0  36321-3 0  9998",
    "TLE_LINE2": "2 65202  53.1574 342.7540 0001251  94.4839 265.6305 15.30206330 14996",
    "COMMENT": "Grouped by shell and plane from TLE"
  },
  {
    "OBJECT_NAME": "STARLINK-34914",
    "OBJECT_ID": "25176F",
    "EPOCH": "2025-11-11T08:00:03.000384",
    "MEAN_MOTION": 15.30172526,
    "ECCENTRICITY": 0.0001563,
    "INCLINATION": 53.1606,
    "RA_OF_ASC_NODE": 342.3664,
    "ARG_OF_PERICENTER": 84.674,
    "MEAN_ANOMALY": 189.4566,
    "EPHEMERIS_TYPE": 0,
    "CLASSIFICATION_TYPE": "U",
    "NORAD_CAT_ID": 65203,
    "ELEMENT_SET_NO": 999,
    "REV_AT_EPOCH": 592,
    "BSTAR": 0.00042570000000000005,
    "MEAN_MOTION_DOT": 0.00012259,
    "MEAN_MOTION_DDOT": 0.0,
    "TLE_LINE1": "1 65203U 25176F   25315.33336806  .00012259  00000+0  42570-3 0  9994",
    "TLE_LINE2": "2 65203  53.1606 342.3664 0001563  84.6740 189.4566 15.30172526  5928",
    "COMMENT": "Grouped by shell and plane from TLE"
  },
  {
    "OBJECT_NAME": "STARLINK-34787",
    "OBJECT_ID": "25176G",
    "EPOCH": "2025-11-11T06:28:42.449664",
    "MEAN_MOTION": 15.30209729,
    "ECCENTRICITY": 9.59e-05,
    "INCLINATION": 53.1621,
    "RA_OF_ASC_NODE": 342.5064,
    "ARG_OF_PERICENTER": 5.6515,
    "MEAN_ANOMALY": 354.4496,
    "EPHEMERIS_TYPE": 0,
    "CLASSIFICATION_TYPE": "U",
    "NORAD_CAT_ID": 65204,
    "ELEMENT_SET_NO": 999,
    "REV_AT_EPOCH": 1499,
    "BSTAR": 0.0011885,
    "MEAN_MOTION_DOT": 0.00035019,
    "MEAN_MOTION_DDOT": 0.0,
    "TLE_LINE1": "1 65204U 25176G   25315.26993576  .00035019  00000+0  11885-2 0  9993",
    "TLE_LINE2": "2 65204  53.1621 342.5064 0000959   5.6515 354.4496 15.30209729 14992",
    "COMMENT": "Grouped by shell and plane from TLE"
  },
  {
    "OBJECT_NAME": "STARLINK-34796",
    "OBJECT_ID": "25176H",
    "EPOCH": "2025-11-11T06:12:08.240544",
    "MEAN_MOTION": 15.30169309,
    "ECCENTRICITY": 0.0001715,
    "INCLINATION": 53.1598,
    "RA_OF_ASC_NODE": 343.1493,
    "ARG_OF_PERICENTER": 48.4154,
    "MEAN_ANOMALY": 311.6993,
    "EPHEMERIS_TYPE": 0,
    "CLASSIFICATION_TYPE": "U",
    "NORAD_CAT_ID": 65205,
    "ELEMENT_SET_NO": 999,
    "REV_AT_EPOCH": 1498,
    "BSTAR": 0.0010323,
    "MEAN_MOTION_DOT": 0.00030311,
    "MEAN_MOTION_DDOT": 0.0,
    "TLE_LINE1": "1 65205U 25176H   25315.25842871  .00030311  00000+0  10323-2 0  9990",
    "TLE_LINE2": "2 65205  53.1598 343.1493 0001715  48.4154 311.6993 15.30169309 14989",
    "COMMENT": "Grouped by shell and plane from TLE"
  },
  {
    "OBJECT_NAME": "STARLINK-34763",
    "OBJECT_ID": "25176J",
    "EPOCH": "2025-11-11T06:42:23.015520",
    "MEAN_MOTION": 15.30201101,
    "ECCENTRICITY": 0.0001553,
    "INCLINATION": 53.1611,
    "RA_OF_ASC_NODE": 342.5673,
    "ARG_OF_PERICENTER": 76.3796,
    "MEAN_ANOMALY": 283.7378,
    "EPHEMERIS_TYPE": 0,
    "CLASSIFICATION_TYPE": "U",
    "NORAD_CAT_ID": 65206,
    "ELEMENT_SET_NO": 999,
    "REV_AT_EPOCH": 1498,
    "BSTAR": 0.00098211,
    "MEAN_MOTION_DOT": 0.00028842,
    "MEAN_MOTION_DDOT": 0.0,
    "TLE_LINE1": "1 65206U 25176J   25315.27943305  .00028842  00000+0  98211-3 0  9996",
    "TLE_LINE2": "2 65206  53.1611 342.5673 0001553  76.3796 283.7378 15.30201101 14984",
    "COMMENT": "Grouped by shell and plane from TLE"
  },
  {
    "OBJECT_NAME": "STARLINK-34901",
    "OBJECT_ID": "25176K",
    "EPOCH": "2025-11-11T06:37:49.264896",
    "MEAN_MOTION": 15.30215739,
    "ECCENTRICITY": 0.0001539,
    "INCLINATION": 53.1625,
    "RA_OF_ASC_NODE": 342.5462,
    "ARG_OF_PERICENTER": 101.1758,
    "MEAN_ANOMALY": 258.9416,
    "EPHEMERIS_TYPE": 0,
    "CLASSIFICATION_TYPE": "U",
    "NORAD_CAT_ID": 65207,
    "ELEMENT_SET_NO": 999,
    "REV_AT_EPOCH": 1499,
    "BSTAR": 0.00083148,
    "MEAN_MOTION_DOT": 0.0002436,
    "MEAN_MOTION_DDOT": 0.0,
    "TLE_LINE1": "1 65207U 25176K   25315.27626464  .00024360  00000+0  83148-3 0  9995",
    "TLE_LINE2": "2 65207  53.1625 342.5462 0001539 101.1758 258.9416 15.30215739 14995",
    "COMMENT": "Grouped by shell and plane from TLE"
  },
  {
    "OBJECT_NAME": "STARLINK-34841",
    "OBJECT_ID": "25176L",
    "EPOCH": "2025-11-11T08:00:03.000384",
    "MEAN_MOTION": 15.30173405,
    "ECCENTRICITY": 0.0001241,
    "INCLINATION": 53.1595,
    "RA_OF_ASC_NODE": 342.5743,
    "ARG_OF_PERICENTER": 88.521,
    "MEAN_ANOMALY": 80.9199,
    "EPHEMERIS_TYPE": 0,
    "CLASSIFICATION_TYPE": "U",
    "NORAD_CAT_ID": 65208,
    "ELEMENT_SET_NO": 999,
    "REV_AT_EPOCH": 591,
    "BSTAR": 0.00035454999999999997,
    "MEAN_MOTION_DOT": 0.00010147,
    "MEAN_MOTION_DDOT": 0.0,
    "TLE_LINE1": "1 65208U 25176L   25315.33336806  .00010147  00000+0  35455-3 0  9997",
    "TLE_LINE2": "2 65208  53.1595 342.5743 0001241  88.5210  80.9199 15.30173405  5911",
    "COMMENT": "Grouped by shell and plane from TLE"
  },
  {
    "OBJECT_NAME": "STARLINK-34976",
    "OBJECT_ID": "25176M",
    "EPOCH": "2025-11-11T06:10:37.699392",
    "MEAN_MOTION": 15.30230588,
    "ECCENTRICITY": 0.0001335,
    "INCLINATION": 53.1604,
    "RA_OF_ASC_NODE": 343.1379,
    "ARG_OF_PERICENTER": 106.5112,
    "MEAN_ANOMALY": 253.6036,
    "EPHEMERIS_TYPE": 0,
    "CLASSIFICATION_TYPE": "U",
    "NORAD_CAT_ID": 65209,
    "ELEMENT_SET_NO": 999,
    "REV_AT_EPOCH": 1498,
    "BSTAR": 0.0013514000000000002,
    "MEAN_MOTION_DOT": 0.00039918,
    "MEAN_MOTION_DDOT": 0.0,
    "TLE_LINE1": "1 65209U 25176M   25315.25738078  .00039918  00000+0  13514-2 0  9994",
    "TLE_LINE2": "2 65209  53.1604 343.1379 0001335 106.5112 253.6036 15.30230588 14983",
    "COMMENT": "Grouped by shell and plane from TLE"
  },
  {
    "OBJECT_NAME": "STARLINK-34941",
    "OBJECT_ID": "25176N",
    "EPOCH": "2025-11-10T07:19:52.933728",
    "MEAN_MOTION": 15.3967014,
    "ECCENTRICITY": 0.0001417,
    "INCLINATION": 53.1592,
    "RA_OF_ASC_NODE": 347.1603,
    "ARG_OF_PERICENTER": 108.606,
    "MEAN_ANOMALY": 251.5099,
    "EPHEMERIS_TYPE": 0,
    "CLASSIFICATION_TYPE": "U",
    "NORAD_CAT_ID": 65210,
    "ELEMENT_SET_NO": 999,
    "REV_AT_EPOCH": 1484,
    "BSTAR": 0.0024534,
    "MEAN_MOTION_DOT": 0.00099183,
    "MEAN_MOTION_DDOT": 0.0,
    "TLE_LINE1": "1 65210U 25176N   25314.30547377  .00099183  00000+0  24534-2 0  9995",
    "TLE_LINE2": "2 65210  53.1592 347.1603 0001417 108.6060 251.5099 15.39670140 14843",
    "COMMENT": "Grouped by shell and plane from TLE"
  },
  {
    "OBJECT_NAME": "STARLINK-34847",
    "OBJECT_ID": "25176P",
    "EPOCH": "2025-11-11T08:00:03.000384",
    "MEAN_MOTION": 15.32852146,
    "ECCENTRICITY": 0.0001574,
    "INCLINATION": 53.1599,
    "RA_OF_ASC_NODE": 342.5121,
    "ARG_OF_PERICENTER": 58.7357,
    "MEAN_ANOMALY": 141.8411,
    "EPHEMERIS_TYPE": 0,
    "CLASSIFICATION_TYPE": "U",
    "NORAD_CAT_ID": 65211,
    "ELEMENT_SET_NO": 999,
    "REV_AT_EPOCH": 591,
    "BSTAR": 0.0,
    "MEAN_MOTION_DOT": -0.01444508,
    "MEAN_MOTION_DDOT": 0.0,
    "TLE_LINE1": "1 65211U 25176P   25315.33336806 -.01444508  00000+0 -49589-1 0  9997",
    "TLE_LINE2": "2 65211  53.1599 342.5121 0001574  58.7357 141.8411 15.32852146  5911",
    "COMMENT": "Grouped by shell and plane from TLE"
  }
]